start=new Date('2022-03-02T00:00:00.000Z').valueOf();
sats=[{"ELEMENT_SET_NO":"999","TLE_LINE2":"2 50809  53.2136 291.7352 0001512  35.8191 326.8693 15.73162193  9812","MEAN_MOTION_DOT":"0.00018512","EPOCH":"2022-03-01T22:00:01.999584","NORAD_CAT_ID":"50809","REF_FRAME":"TEME","PERIOD":"91.535","ECCENTRICITY":"0.00015120","INCLINATION":"53.2136","REV_AT_EPOCH":"981","TIME_SYSTEM":"UTC","SEMIMAJOR_AXIS":"6728.003","OBJECT_ID":"2022-001G","CLASSIFICATION_TYPE":"U","PERIAPSIS":"348.851","EPHEMERIS_TYPE":"0","TLE_LINE1":"1 50809U 22001G   22060.91668981  .00018512  00000-0  13624-3 0  9991","COUNTRY_CODE":"US","MEAN_MOTION_DDOT":"0.0000000000000","BSTAR":"0.00013624000000","FILE":"3337606","OBJECT_TYPE":"PAYLOAD","GP_ID":"197498292","MEAN_ANOMALY":"326.8693","SITE":"AFETR","RCS_SIZE":"LARGE","DECAY_DATE":null,"APOAPSIS":"350.885","MEAN_ELEMENT_THEORY":"SGP4","OBJECT_NAME":"STARLINK-3232","CENTER_NAME":"EARTH","ARG_OF_PERICENTER":"35.8191","MEAN_MOTION":"15.73162193","RA_OF_ASC_NODE":"291.7352","LAUNCH_DATE":"2022-01-06"},{"EPOCH":"2022-03-01T22:00:01.999584","MEAN_MOTION_DOT":"0.00022321","ELEMENT_SET_NO":"999","TLE_LINE2":"2 50810  53.2141 291.7327 0001463  40.4109 323.4983 15.73197093  9797","REF_FRAME":"TEME","ECCENTRICITY":"0.00014630","PERIOD":"91.533","NORAD_CAT_ID":"50810","OBJECT_ID":"2022-001H","CLASSIFICATION_TYPE":"U","INCLINATION":"53.2141","REV_AT_EPOCH":"979","SEMIMAJOR_AXIS":"6727.903","TIME_SYSTEM":"UTC","MEAN_MOTION_DDOT":"0.0000000000000","TLE_LINE1":"1 50810U 22001H   22060.91668981  .00022321  00000-0  16305-3 0  9995","EPHEMERIS_TYPE":"0","COUNTRY_CODE":"US","PERIAPSIS":"348.784","OBJECT_TYPE":"PAYLOAD","SITE":"AFETR","MEAN_ANOMALY":"323.4983","GP_ID":"197499126","FILE":"3337633","BSTAR":"0.00016305000000","MEAN_ELEMENT_THEORY":"SGP4","DECAY_DATE":null,"RCS_SIZE":"LARGE","APOAPSIS":"350.753","MEAN_MOTION":"15.73197093","ARG_OF_PERICENTER":"40.4109","CENTER_NAME":"EARTH","OBJECT_NAME":"STARLINK-3348","LAUNCH_DATE":"2022-01-06","RA_OF_ASC_NODE":"291.7327"},{"OBJECT_NAME":"STARLINK-3347","CENTER_NAME":"EARTH","ARG_OF_PERICENTER":"35.9832","MEAN_MOTION":"15.73227352","RA_OF_ASC_NODE":"291.7288","LAUNCH_DATE":"2022-01-06","BSTAR":"-0.00047923000000","FILE":"3337674","OBJECT_TYPE":"PAYLOAD","GP_ID":"197499843","MEAN_ANOMALY":"329.2391","SITE":"AFETR","RCS_SIZE":"LARGE","DECAY_DATE":null,"APOAPSIS":"350.646","MEAN_ELEMENT_THEORY":"SGP4","REV_AT_EPOCH":"982","INCLINATION":"53.2131","TIME_SYSTEM":"UTC","SEMIMAJOR_AXIS":"6727.817","OBJECT_ID":"2022-001J","CLASSIFICATION_TYPE":"U","PERIAPSIS":"348.718","TLE_LINE1":"1 50811U 22001J   22060.91668981 -.00067420  00000-0 -47923-3 0  9997","EPHEMERIS_TYPE":"0","COUNTRY_CODE":"US","MEAN_MOTION_DDOT":"0.0000000000000","ELEMENT_SET_NO":"999","TLE_LINE2":"2 50811  53.2131 291.7288 0001433  35.9832 329.2391 15.73227352  9825","MEAN_MOTION_DOT":"-0.00067420","EPOCH":"2022-03-01T22:00:01.999584","NORAD_CAT_ID":"50811","REF_FRAME":"TEME","PERIOD":"91.532","ECCENTRICITY":"0.00014330"},{"APOAPSIS":"351.168","RCS_SIZE":"LARGE","DECAY_DATE":null,"MEAN_ELEMENT_THEORY":"SGP4","FILE":"3338635","BSTAR":"0.00012059000000","MEAN_ANOMALY":"337.2157","SITE":"AFETR","GP_ID":"197544921","OBJECT_TYPE":"PAYLOAD","RA_OF_ASC_NODE":"291.7266","LAUNCH_DATE":"2022-01-06","ARG_OF_PERICENTER":"29.3368","CENTER_NAME":"EARTH","OBJECT_NAME":"STARLINK-3338","MEAN_MOTION":"15.73191806","NORAD_CAT_ID":"50812","PERIOD":"91.534","ECCENTRICITY":"0.00020580","REF_FRAME":"TEME","TLE_LINE2":"2 50812  53.2133 291.7266 0002058  29.3368 337.2157 15.73191806  3703","ELEMENT_SET_NO":"999","EPOCH":"2022-03-01T22:00:01.999584","MEAN_MOTION_DOT":"0.00016331","COUNTRY_CODE":"US","TLE_LINE1":"1 50812U 22001K   22060.91668981  .00016331  00000-0  12059-3 0  9993","EPHEMERIS_TYPE":"0","PERIAPSIS":"348.399","MEAN_MOTION_DDOT":"0.0000000000000","SEMIMAJOR_AXIS":"6727.919","TIME_SYSTEM":"UTC","REV_AT_EPOCH":"370","INCLINATION":"53.2133","CLASSIFICATION_TYPE":"U","OBJECT_ID":"2022-001K"},{"OBJECT_NAME":"STARLINK-3349","CENTER_NAME":"EARTH","ARG_OF_PERICENTER":"29.2241","MEAN_MOTION":"15.73234411","RA_OF_ASC_NODE":"291.7260","LAUNCH_DATE":"2022-01-06","BSTAR":"-0.00021438000000","FILE":"3338635","OBJECT_TYPE":"PAYLOAD","GP_ID":"197545172","SITE":"AFETR","MEAN_ANOMALY":"336.6969","RCS_SIZE":"LARGE","DECAY_DATE":null,"APOAPSIS":"350.751","MEAN_ELEMENT_THEORY":"SGP4","INCLINATION":"53.2152","REV_AT_EPOCH":"370","TIME_SYSTEM":"UTC","SEMIMAJOR_AXIS":"6727.797","OBJECT_ID":"2022-001L","CLASSIFICATION_TYPE":"U","PERIAPSIS":"348.573","EPHEMERIS_TYPE":"0","TLE_LINE1":"1 50813U 22001L   22060.91668981 -.00030643  00000-0 -21438-3 0  9999","COUNTRY_CODE":"US","MEAN_MOTION_DDOT":"0.0000000000000","ELEMENT_SET_NO":"999","TLE_LINE2":"2 50813  53.2152 291.7260 0001619  29.2241 336.6969 15.73234411  3704","MEAN_MOTION_DOT":"-0.00030643","EPOCH":"2022-03-01T22:00:01.999584","NORAD_CAT_ID":"50813","REF_FRAME":"TEME","PERIOD":"91.531","ECCENTRICITY":"0.00016190"},{"MEAN_MOTION_DOT":"-0.00718908","EPOCH":"2022-03-01T22:00:01.999584","TLE_LINE2":"2 50814  53.2174 291.8524 0001674  34.0155 285.5216 15.66740827  3704","ELEMENT_SET_NO":"999","PERIOD":"91.911","ECCENTRICITY":"0.00016740","REF_FRAME":"TEME","NORAD_CAT_ID":"50814","CLASSIFICATION_TYPE":"U","OBJECT_ID":"2022-001M","TIME_SYSTEM":"UTC","SEMIMAJOR_AXIS":"6746.374","REV_AT_EPOCH":"370","INCLINATION":"53.2174","MEAN_MOTION_DDOT":"0.0000000000000","PERIAPSIS":"367.109","TLE_LINE1":"1 50814U 22001M   22060.91668981 -.00718908  00000-0 -73018-2 0  9997","COUNTRY_CODE":"US","EPHEMERIS_TYPE":"0","GP_ID":"197543920","MEAN_ANOMALY":"285.5216","SITE":"AFETR","OBJECT_TYPE":"PAYLOAD","BSTAR":"-0.00730180000000","FILE":"3338635","MEAN_ELEMENT_THEORY":"SGP4","APOAPSIS":"369.368","DECAY_DATE":null,"RCS_SIZE":"LARGE","MEAN_MOTION":"15.66740827","OBJECT_NAME":"STARLINK-3324","CENTER_NAME":"EARTH","ARG_OF_PERICENTER":"34.0155","LAUNCH_DATE":"2022-01-06","RA_OF_ASC_NODE":"291.8524"},{"EPOCH":"2022-03-01T22:00:01.999584","MEAN_MOTION_DOT":"-0.00718621","TLE_LINE2":"2 50815  53.2173 291.8567 0001822  30.4638 281.1460 15.66357169  3708","ELEMENT_SET_NO":"999","PERIOD":"91.933","ECCENTRICITY":"0.00018220","REF_FRAME":"TEME","NORAD_CAT_ID":"50815","CLASSIFICATION_TYPE":"U","OBJECT_ID":"2022-001N","SEMIMAJOR_AXIS":"6747.475","TIME_SYSTEM":"UTC","REV_AT_EPOCH":"370","INCLINATION":"53.2173","MEAN_MOTION_DDOT":"0.0000000000000","EPHEMERIS_TYPE":"0","TLE_LINE1":"1 50815U 22001N   22060.91668981 -.00718621  00000-0 -74130-2 0  9996","COUNTRY_CODE":"US","PERIAPSIS":"368.111","SITE":"AFETR","MEAN_ANOMALY":"281.1460","GP_ID":"197544170","OBJECT_TYPE":"PAYLOAD","FILE":"3338635","BSTAR":"-0.00741300000000","MEAN_ELEMENT_THEORY":"SGP4","APOAPSIS":"370.570","DECAY_DATE":null,"RCS_SIZE":"LARGE","MEAN_MOTION":"15.66357169","ARG_OF_PERICENTER":"30.4638","CENTER_NAME":"EARTH","OBJECT_NAME":"STARLINK-3234","LAUNCH_DATE":"2022-01-06","RA_OF_ASC_NODE":"291.8567"},{"APOAPSIS":"374.207","RCS_SIZE":"LARGE","DECAY_DATE":null,"MEAN_ELEMENT_THEORY":"SGP4","FILE":"3338635","BSTAR":"-0.00781420000000","MEAN_ANOMALY":"244.4608","SITE":"AFETR","GP_ID":"197544422","OBJECT_TYPE":"PAYLOAD","RA_OF_ASC_NODE":"291.8448","LAUNCH_DATE":"2022-01-06","ARG_OF_PERICENTER":"48.2661","OBJECT_NAME":"STARLINK-3342","CENTER_NAME":"EARTH","MEAN_MOTION":"15.65002556","NORAD_CAT_ID":"50816","PERIOD":"92.013","ECCENTRICITY":"0.00014420","REF_FRAME":"TEME","TLE_LINE2":"2 50816  53.2173 291.8448 0001442  48.2661 244.4608 15.65002556  3700","ELEMENT_SET_NO":"999","EPOCH":"2022-03-01T22:00:01.999584","MEAN_MOTION_DOT":"-0.00717247","EPHEMERIS_TYPE":"0","TLE_LINE1":"1 50816U 22001P   22060.91668981 -.00717247  00000-0 -78142-2 0  9997","COUNTRY_CODE":"US","PERIAPSIS":"372.260","MEAN_MOTION_DDOT":"0.0000000000000","SEMIMAJOR_AXIS":"6751.368","TIME_SYSTEM":"UTC","REV_AT_EPOCH":"370","INCLINATION":"53.2173","CLASSIFICATION_TYPE":"U","OBJECT_ID":"2022-001P"},{"LAUNCH_DATE":"2022-01-06","RA_OF_ASC_NODE":"291.8553","MEAN_MOTION":"15.66484972","OBJECT_NAME":"STARLINK-3341","CENTER_NAME":"EARTH","ARG_OF_PERICENTER":"41.7217","MEAN_ELEMENT_THEORY":"SGP4","APOAPSIS":"369.987","RCS_SIZE":"LARGE","DECAY_DATE":null,"GP_ID":"197544673","MEAN_ANOMALY":"272.5690","SITE":"AFETR","OBJECT_TYPE":"PAYLOAD","BSTAR":"-0.00737460000000","FILE":"3338635","MEAN_MOTION_DDOT":"0.0000000000000","PERIAPSIS":"367.959","EPHEMERIS_TYPE":"0","TLE_LINE1":"1 50817U 22001Q   22060.91668981 -.00718549  00000-0 -73746-2 0  9999","COUNTRY_CODE":"US","CLASSIFICATION_TYPE":"U","OBJECT_ID":"2022-001Q","TIME_SYSTEM":"UTC","SEMIMAJOR_AXIS":"6747.108","INCLINATION":"53.2173","REV_AT_EPOCH":"370","PERIOD":"91.926","ECCENTRICITY":"0.00015030","REF_FRAME":"TEME","NORAD_CAT_ID":"50817","MEAN_MOTION_DOT":"-0.00718549","EPOCH":"2022-03-01T22:00:01.999584","TLE_LINE2":"2 50817  53.2173 291.8553 0001503  41.7217 272.5690 15.66484972  3701","ELEMENT_SET_NO":"999"},{"SEMIMAJOR_AXIS":"6752.104","TIME_SYSTEM":"UTC","INCLINATION":"53.2173","REV_AT_EPOCH":"370","CLASSIFICATION_TYPE":"U","OBJECT_ID":"2022-001R","EPHEMERIS_TYPE":"0","TLE_LINE1":"1 50818U 22001R   22060.91668981 -.00717177  00000-0 -78932-2 0  9998","COUNTRY_CODE":"US","PERIAPSIS":"372.824","MEAN_MOTION_DDOT":"0.0000000000000","TLE_LINE2":"2 50818  53.2173 291.8456 0001696  36.5102 249.9261 15.64746903  3707","ELEMENT_SET_NO":"999","EPOCH":"2022-03-01T22:00:01.999584","MEAN_MOTION_DOT":"-0.00717177","NORAD_CAT_ID":"50818","PERIOD":"92.028","ECCENTRICITY":"0.00016960","REF_FRAME":"TEME","ARG_OF_PERICENTER":"36.5102","OBJECT_NAME":"STARLINK-3336","CENTER_NAME":"EARTH","MEAN_MOTION":"15.64746903","RA_OF_ASC_NODE":"291.8456","LAUNCH_DATE":"2022-01-06","FILE":"3338635","BSTAR":"-0.00789320000000","SITE":"AFETR","MEAN_ANOMALY":"249.9261","GP_ID":"197543421","OBJECT_TYPE":"PAYLOAD","APOAPSIS":"375.114","DECAY_DATE":null,"RCS_SIZE":"LARGE","MEAN_ELEMENT_THEORY":"SGP4"}];
